[{"OBJECT_NAME":"STARLINK-35580","OBJECT_ID":"2025-240K","EPOCH":"2026-03-09T06:07:17.060448","MEAN_MOTION":15.3019797,"ECCENTRICITY":0.00012036,"INCLINATION":53.1604,"RA_OF_ASC_NODE":64.7055,"ARG_OF_PERICENTER":80.4775,"MEAN_ANOMALY":279.6362,"EPHEMERIS_TYPE":0,"CLASSIFICATION_TYPE":"U","NORAD_CAT_ID":66155,"ELEMENT_SET_NO":999,"REV_AT_EPOCH":2192,"BSTAR":0.00072656172,"MEAN_MOTION_DOT":0.0002122,"MEAN_MOTION_DDOT":0},{"OBJECT_NAME":"CERISE","OBJECT_ID":"1995-033B","EPOCH":"2026-03-09T23:11:27.589056","MEAN_MOTION":15.32047731,"ECCENTRICITY":0.00057118,"INCLINATION":98.325,"RA_OF_ASC_NODE":273.5192,"ARG_OF_PERICENTER":211.8754,"MEAN_ANOMALY":148.214,"EPHEMERIS_TYPE":0,"CLASSIFICATION_TYPE":"U","NORAD_CAT_ID":23606,"ELEMENT_SET_NO":999,"REV_AT_EPOCH":66468,"BSTAR":0.00062940675,"MEAN_MOTION_DOT":0.00019422,"MEAN_MOTION_DDOT":0}]
